{
  "norad_id": 66540,
  "name": "STARLINK-35818",
  "history": [
    {
      "epoch": "2026-03-28T14:53:23.265888Z",
      "apogee_km": 483.40833572441625,
      "perigee_km": 482.52188133199525,
      "latitude_deg": -1.0062811609531012e-06,
      "longitude_deg": 122.06831971338069,
      "height_km": 482.9360708552831,
      "semi_major_axis_km": 6861.1021085282055,
      "eccentricity": 6.46e-05,
      "inclination_deg": 42.9995,
      "raan_deg": 171.4535,
      "arg_perigee_deg": 116.2817,
      "mean_anomaly_deg": 243.8101,
      "mean_motion_rev_day": 15.27608049
    }
  ]
}