{"fetched_at":"2026-03-29T16:36:15Z","count":15609,"tles":[{"name":"STARLINK-35818","line1":"1 66540U 25265AA  26087.62040817  .00034677  00000+0  12627-2 0  9998","line2":"2 66540  42.9995 171.4535 0000646 116.2817 243.8101 15.27608049 20002","category":"Starlink"}]}